{
  "type": "FeatureCollection",
  "features": [
    {
      "type": "Feature",
      "properties": {
        "norad_id": 37867,
        "name": "COSMOS 2476 (744)",
        "group": "glo-ops",
        "lat": 30.76197651047303,
        "lon": -117.2559487940351,
        "alt_km": 19125.38461664521,
        "timestamp": "2025-12-26T11:25:45.456843+00:00",
        "meta_object_name": "COSMOS 2476 (744)",
        "meta_object_id": "2011-064A",
        "meta_epoch": "2025-12-26T00:51:29.512800",
        "meta_mean_motion": 2.1310389,
        "meta_eccentricity": 0.0024563,
        "meta_inclination": 65.1688,
        "meta_ra_of_asc_node": 78.7218,
        "meta_arg_of_pericenter": 235.0609,
        "meta_mean_anomaly": 293.0048,
        "meta_ephemeris_type": 0,
        "meta_classification_type": "U",
        "meta_norad_cat_id": 37867,
        "meta_element_set_no": 999,
        "meta_rev_at_epoch": 11007,
        "meta_bstar": 0,
        "meta_mean_motion_dot": -5e-08,
        "meta_mean_motion_ddot": 0,
        "tle_line1": "1 37867U 11064A   25360.03575825 -.00000005  00000+0  00000+0 0  9998",
        "tle_line2": "2 37867  65.1688  78.7218 0024563 235.0609 293.0048  2.13103890110077"
      },
      "geometry": {
        "type": "Point",
        "coordinates": [
          -117.2559487940351,
          30.76197651047303
        ]
      }
    },
    {
      "type": "Feature",
      "properties": {
        "norad_id": 37868,
        "name": "COSMOS 2477 (745)",
        "group": "glo-ops",
        "lat": -29.571981006870597,
        "lon": 63.59083177308036,
        "alt_km": 19135.328201411576,
        "timestamp": "2025-12-26T11:25:45.456853+00:00",
        "meta_object_name": "COSMOS 2477 (745)",
        "meta_object_id": "2011-064B",
        "meta_epoch": "2025-12-24T15:22:57.950400",
        "meta_mean_motion": 2.13103036,
        "meta_eccentricity": 0.00215718,
        "meta_inclination": 65.1748,
        "meta_ra_of_asc_node": 78.8466,
        "meta_arg_of_pericenter": 235.4688,
        "meta_mean_anomaly": 123.4303,
        "meta_ephemeris_type": 0,
        "meta_classification_type": "U",
        "meta_norad_cat_id": 37868,
        "meta_element_set_no": 999,
        "meta_rev_at_epoch": 11003,
        "meta_bstar": 0,
        "meta_mean_motion_dot": 1e-08,
        "meta_mean_motion_ddot": 0,
        "tle_line1": "1 37868U 11064B   25358.64094850  .00000001  00000+0  00000+0 0  9992",
        "tle_line2": "2 37868  65.1748  78.8466 0021571 235.4688 123.4303  2.13103036110036"
      },
      "geometry": {
        "type": "Point",
        "coordinates": [
          63.59083177308036,
          -29.571981006870597
        ]
      }
    },
    {
      "type": "Feature",
      "properties": {
        "norad_id": 37869,
        "name": "COSMOS 2475 (743)",
        "group": "glo-ops",
        "lat": -62.241016241213984,
        "lon": 17.422610707357023,
        "alt_km": 19079.42343160143,
        "timestamp": "2025-12-26T11:25:45.456863+00:00",
        "meta_object_name": "COSMOS 2475 (743)",
        "meta_object_id": "2011-064C",
        "meta_epoch": "2025-12-26T02:48:59.782176",
        "meta_mean_motion": 2.13101658,
        "meta_eccentricity": 0.0026816,
        "meta_inclination": 65.1822,
        "meta_ra_of_asc_node": 78.8169,
        "meta_arg_of_pericenter": 249.2724,
        "meta_mean_anomaly": 118.1607,
        "meta_ephemeris_type": 0,
        "meta_classification_type": "U",
        "meta_norad_cat_id": 37869,
        "meta_element_set_no": 999,
        "meta_rev_at_epoch": 11008,
        "meta_bstar": 0,
        "meta_mean_motion_dot": -5e-08,
        "meta_mean_motion_ddot": 0,
        "tle_line1": "1 37869U 11064C   25360.11735859 -.00000005  00000+0  00000+0 0  9994",
        "tle_line2": "2 37869  65.1822  78.8169 0026816 249.2724 118.1607  2.13101658110082"
      },
      "geometry": {
        "type": "Point",
        "coordinates": [
          17.422610707357023,
          -62.241016241213984
        ]
      }
    },
    {
      "type": "Feature",
      "properties": {
        "norad_id": 39155,
        "name": "COSMOS 2485 (747)",
        "group": "glo-ops",
        "lat": -12.792351736760159,
        "lon": -94.59907031832834,
        "alt_km": 19080.56676045037,
        "timestamp": "2025-12-26T11:25:45.456873+00:00",
        "meta_object_name": "COSMOS 2485 (747)",
        "meta_object_id": "2013-019A",
        "meta_epoch": "2025-12-25T06:49:20.356032",
        "meta_mean_motion": 2.13103209,
        "meta_eccentricity": 0.00250108,
        "meta_inclination": 65.3197,
        "meta_ra_of_asc_node": 79.4456,
        "meta_arg_of_pericenter": 230.5627,
        "meta_mean_anomaly": 129.2639,
        "meta_ephemeris_type": 0,
        "meta_classification_type": "U",
        "meta_norad_cat_id": 39155,
        "meta_element_set_no": 999,
        "meta_rev_at_epoch": 9857,
        "meta_bstar": 0,
        "meta_mean_motion_dot": 0,
        "meta_mean_motion_ddot": 0,
        "tle_line1": "1 39155U 13019A   25359.28426338  .00000000  00000+0  00000+0 0  9995",
        "tle_line2": "2 39155  65.3197  79.4456 0025010 230.5627 129.2639  2.13103209 98576"
      },
      "geometry": {
        "type": "Point",
        "coordinates": [
          -94.59907031832834,
          -12.792351736760159
        ]
      }
    },
    {
      "type": "Feature",
      "properties": {
        "norad_id": 39620,
        "name": "COSMOS 2492 (754)",
        "group": "glo-ops",
        "lat": -40.812384298068075,
        "lon": 163.07809499490136,
        "alt_km": 19133.58619081513,
        "timestamp": "2025-12-26T11:25:45.456883+00:00",
        "meta_object_name": "COSMOS 2492 (754)",
        "meta_object_id": "2014-012A",
        "meta_epoch": "2025-12-25T17:05:27.733056",
        "meta_mean_motion": 2.13103333,
        "meta_eccentricity": 0.0014301,
        "meta_inclination": 65.4007,
        "meta_ra_of_asc_node": 319.831,
        "meta_arg_of_pericenter": 314.035,
        "meta_mean_anomaly": 45.8506,
        "meta_ephemeris_type": 0,
        "meta_classification_type": "U",
        "meta_norad_cat_id": 39620,
        "meta_element_set_no": 999,
        "meta_rev_at_epoch": 9154,
        "meta_bstar": 0,
        "meta_mean_motion_dot": -3.2e-07,
        "meta_mean_motion_ddot": 0,
        "tle_line1": "1 39620U 14012A   25359.71212654 -.00000032  00000+0  00000+0 0  9994",
        "tle_line2": "2 39620  65.4007 319.8310 0014301 314.0350  45.8506  2.13103333 91540"
      },
      "geometry": {
        "type": "Point",
        "coordinates": [
          163.07809499490136,
          -40.812384298068075
        ]
      }
    },
    {
      "type": "Feature",
      "properties": {
        "norad_id": 40001,
        "name": "COSMOS 2500 (755)",
        "group": "glo-ops",
        "lat": 65.01577997734191,
        "lon": 59.361527360506756,
        "alt_km": 19133.984602109438,
        "timestamp": "2025-12-26T11:25:45.456893+00:00",
        "meta_object_name": "COSMOS 2500 (755)",
        "meta_object_id": "2014-032A",
        "meta_epoch": "2025-12-24T22:41:43.592352",
        "meta_mean_motion": 2.13106238,
        "meta_eccentricity": 0.0007709,
        "meta_inclination": 65.3365,
        "meta_ra_of_asc_node": 319.6177,
        "meta_arg_of_pericenter": 219.4903,
        "meta_mean_anomaly": 140.4561,
        "meta_ephemeris_type": 0,
        "meta_classification_type": "U",
        "meta_norad_cat_id": 40001,
        "meta_element_set_no": 999,
        "meta_rev_at_epoch": 8974,
        "meta_bstar": 0,
        "meta_mean_motion_dot": -3.2e-07,
        "meta_mean_motion_ddot": 0,
        "tle_line1": "1 40001U 14032A   25358.94564343 -.00000032  00000+0  00000+0 0  9990",
        "tle_line2": "2 40001  65.3365 319.6177 0007709 219.4903 140.4561  2.13106238 89745"
      },
      "geometry": {
        "type": "Point",
        "coordinates": [
          59.361527360506756,
          65.01577997734191
        ]
      }
    },
    {
      "type": "Feature",
      "properties": {
        "norad_id": 40315,
        "name": "COSMOS 2501 (702K)",
        "group": "glo-ops",
        "lat": -59.881296857913625,
        "lon": 75.21873505160444,
        "alt_km": 19103.942436196816,
        "timestamp": "2025-12-26T11:25:45.456903+00:00",
        "meta_object_name": "COSMOS 2501 (702K)",
        "meta_object_id": "2014-075A",
        "meta_epoch": "2025-12-25T04:55:56.926272",
        "meta_mean_motion": 2.13101331,
        "meta_eccentricity": 0.00201021,
        "meta_inclination": 63.6163,
        "meta_ra_of_asc_node": 196.393,
        "meta_arg_of_pericenter": 203.9317,
        "meta_mean_anomaly": 156.0272,
        "meta_ephemeris_type": 0,
        "meta_classification_type": "U",
        "meta_norad_cat_id": 40315,
        "meta_element_set_no": 999,
        "meta_rev_at_epoch": 8614,
        "meta_bstar": 0,
        "meta_mean_motion_dot": 1.04e-06,
        "meta_mean_motion_ddot": 0,
        "tle_line1": "1 40315U 14075A   25359.20551998  .00000104  00000+0  00000+0 0  9996",
        "tle_line2": "2 40315  63.6163 196.3930 0020102 203.9317 156.0272  2.13101331 86148"
      },
      "geometry": {
        "type": "Point",
        "coordinates": [
          75.21873505160444,
          -59.881296857913625
        ]
      }
    }
  ]
}